EUTELSAT 139 WEST A     
1 28187U 04008A   26019.27039287 -.00000019  00000+0  00000+0 0  9993
2 28187   5.4506  73.8258 0003646 145.9603 228.6186  1.00841241 79862
EUTELSAT 174A           
1 28924U 05052A   26019.25886613  .00000021  00000+0  00000+0 0  9995
2 28924   3.8399  78.4060 0006249 222.6772  84.7566  1.00269695 50833
EUTELSAT 33F            
1 29270U 06032A   26019.23087264  .00000169  00000+0  00000+0 0  9995
2 29270   1.2760  84.0289 0003450 222.4745 288.3295  1.00274715 45819
EUTELSAT HOTBIRD 13C    
1 33459U 08065A   26019.28573296 -.00000270  00000+0  00000+0 0  9991
2 33459   2.5667  81.0090 0003058 227.4677 222.7384  1.00269625 45852
EUTELSAT 36B            
1 36101U 09065A   26019.23433933  .00000127  00000+0  00000+0 0  9997
2 36101   0.1148  68.8146 0005742 233.1774 311.4842  1.00270323 59213
EUTELSAT KA-SAT 9A      
1 37258U 10069A   26019.22619260  .00000076  00000+0  00000+0 0  9998
2 37258   0.0508 343.5394 0002021 189.1338  36.3560  1.00273140 42512
EUTELSAT 7 WEST A       
1 37816U 11051A   26019.29422635 -.00000046  00000+0  00000+0 0  9993
2 37816   0.0626  10.8483 0003901 229.5415 336.9005  1.00271762 52386
EUTELSAT 16A            
1 37836U 11057A   26019.22749262  .00000118  00000+0  00000+0 0  9991
2 37836   0.0542   1.6380 0005290 296.6034 278.2562  1.00270047  5833
